NAVSTAR 77 (USA 289)    
1 43873U 18109A   23311.66317144  .00000090  00000+0  00000+0 0  9993
2 43873  55.2150 129.8224 0026988 189.6534 125.3931  2.00571217 35964
